STARLINK-35747          
1 66207U 25244B   25328.16668980 -.02582065  00000+0 -26165-1 0  9992
2 66207  53.1598   1.4921 0001020 126.0397 196.4020 15.68131590  5277
STARLINK-35751          
1 66208U 25244C   25327.52624233  .00053877  00000+0  13463-2 0  9993
2 66208  53.1599   6.7065 0001550  78.5797 281.5382 15.39644430  5355
STARLINK-35750          
1 66209U 25244D   25328.00002315  .00089093  00000+0  22152-2 0  9993
2 66209  53.1601   4.4210 0001272  90.3002  43.0637 15.39567532  5327
STARLINK-35740          
1 66210U 25244E   25328.00002315  .00078784  00000+0  19632-2 0  9999
2 66210  53.1601   4.4254 0001305 103.9242  27.6227 15.39558962  5196
STARLINK-35723          
1 66211U 25244F   25328.00002315  .00085683  00000+0  21321-2 0  9994
2 66211  53.1602   4.3733 0001220 103.1331  54.1613 15.39561897  5247
STARLINK-35710          
1 66212U 25244G   25328.16668980  .00027845  00000+0  70410-3 0  9998
2 66212  53.1605   3.5368 0002021  90.3458 296.9800 15.39596026  5351
STARLINK-34204          
1 66213U 25244H   25328.00002315  .00076642  00000+0  19102-2 0  9995
2 66213  53.1603   4.3700 0001312  94.3327  64.7838 15.39565570  5510
STARLINK-35714          
1 66214U 25244J   25328.16668980  .00029188  00000+0  73742-3 0  9993
2 66214  53.1600   3.4339 0001482  91.6304 347.2044 15.39597753  5223
STARLINK-35712          
1 66215U 25244K   25328.16668980  .00029542  00000+0  74623-3 0  9997
2 66215  53.1595   3.3826 0001448  94.5254  10.0452 15.39597088  5224
STARLINK-35709          
1 66216U 25244L   25328.16668980  .00029475  00000+0  74458-3 0  9999
2 66216  53.1606   3.5333 0001260  98.5878 290.5716 15.39596322  5229
STARLINK-35700          
1 66217U 25244M   25328.16668980  .00027067  00000+0  68464-3 0  9995
2 66217  53.1604   3.4859 0002123  93.0870 319.9769 15.39602767  5226
STARLINK-35722          
1 66218U 25244N   25328.16668980  .00029926  00000+0  75572-3 0  9990
2 66218  53.1604   3.4817 0001822  95.0499 319.8500 15.39597949  5222
