CCSDS_OMM_VERS = 2.0
CREATION_DATE  = 
ORIGINATOR     = 

OBJECT_NAME    = STARLINK-35747
OBJECT_ID      = 2025-244B
CENTER_NAME    = EARTH
REF_FRAME      = TEME
TIME_SYSTEM    = UTC
MEAN_ELEMENT_THEORY = SGP/SGP4

EPOCH          = 2025-11-24T04:00:01.998720
MEAN_MOTION    = 15.68131590
ECCENTRICITY   = .000102
INCLINATION    = 53.1598
RA_OF_ASC_NODE = 1.4921
ARG_OF_PERICENTER = 126.0397
MEAN_ANOMALY   = 196.4020

EPHEMERIS_TYPE = 0
CLASSIFICATION_TYPE = U
NORAD_CAT_ID   = 66207
ELEMENT_SET_NO = 999
REV_AT_EPOCH   = 527
BSTAR          = -.26165E-1
MEAN_MOTION_DOT = -.2582065E-1
MEAN_MOTION_DDOT = 0

CCSDS_OMM_VERS = 2.0
CREATION_DATE  = 
ORIGINATOR     = 

OBJECT_NAME    = STARLINK-35751
OBJECT_ID      = 2025-244C
CENTER_NAME    = EARTH
REF_FRAME      = TEME
TIME_SYSTEM    = UTC
MEAN_ELEMENT_THEORY = SGP/SGP4

EPOCH          = 2025-11-23T12:37:47.337312
MEAN_MOTION    = 15.39644430
ECCENTRICITY   = .000155
INCLINATION    = 53.1599
RA_OF_ASC_NODE = 6.7065
ARG_OF_PERICENTER = 78.5797
MEAN_ANOMALY   = 281.5382

EPHEMERIS_TYPE = 0
CLASSIFICATION_TYPE = U
NORAD_CAT_ID   = 66208
ELEMENT_SET_NO = 999
REV_AT_EPOCH   = 535
BSTAR          = .13463E-2
MEAN_MOTION_DOT = .53877E-3
MEAN_MOTION_DDOT = 0

CCSDS_OMM_VERS = 2.0
CREATION_DATE  = 
ORIGINATOR     = 

OBJECT_NAME    = STARLINK-35750
OBJECT_ID      = 2025-244D
CENTER_NAME    = EARTH
REF_FRAME      = TEME
TIME_SYSTEM    = UTC
MEAN_ELEMENT_THEORY = SGP/SGP4

EPOCH          = 2025-11-24T00:00:02.000160
MEAN_MOTION    = 15.39567532
ECCENTRICITY   = .0001272
INCLINATION    = 53.1601
RA_OF_ASC_NODE = 4.4210
ARG_OF_PERICENTER = 90.3002
MEAN_ANOMALY   = 43.0637

EPHEMERIS_TYPE = 0
CLASSIFICATION_TYPE = U
NORAD_CAT_ID   = 66209
ELEMENT_SET_NO = 999
REV_AT_EPOCH   = 532
BSTAR          = .22152E-2
MEAN_MOTION_DOT = .89093E-3
MEAN_MOTION_DDOT = 0

CCSDS_OMM_VERS = 2.0
CREATION_DATE  = 
ORIGINATOR     = 

OBJECT_NAME    = STARLINK-35740
OBJECT_ID      = 2025-244E
CENTER_NAME    = EARTH
REF_FRAME      = TEME
TIME_SYSTEM    = UTC
MEAN_ELEMENT_THEORY = SGP/SGP4

EPOCH          = 2025-11-24T00:00:02.000160
MEAN_MOTION    = 15.39558962
ECCENTRICITY   = .0001305
INCLINATION    = 53.1601
RA_OF_ASC_NODE = 4.4254
ARG_OF_PERICENTER = 103.9242
MEAN_ANOMALY   = 27.6227

EPHEMERIS_TYPE = 0
CLASSIFICATION_TYPE = U
NORAD_CAT_ID   = 66210
ELEMENT_SET_NO = 999
REV_AT_EPOCH   = 519
BSTAR          = .19632E-2
MEAN_MOTION_DOT = .78784E-3
MEAN_MOTION_DDOT = 0

CCSDS_OMM_VERS = 2.0
CREATION_DATE  = 
ORIGINATOR     = 

OBJECT_NAME    = STARLINK-35723
OBJECT_ID      = 2025-244F
CENTER_NAME    = EARTH
REF_FRAME      = TEME
TIME_SYSTEM    = UTC
MEAN_ELEMENT_THEORY = SGP/SGP4

EPOCH          = 2025-11-24T00:00:02.000160
MEAN_MOTION    = 15.39561897
ECCENTRICITY   = .000122
INCLINATION    = 53.1602
RA_OF_ASC_NODE = 4.3733
ARG_OF_PERICENTER = 103.1331
MEAN_ANOMALY   = 54.1613

EPHEMERIS_TYPE = 0
CLASSIFICATION_TYPE = U
NORAD_CAT_ID   = 66211
ELEMENT_SET_NO = 999
REV_AT_EPOCH   = 524
BSTAR          = .21321E-2
MEAN_MOTION_DOT = .85683E-3
MEAN_MOTION_DDOT = 0

CCSDS_OMM_VERS = 2.0
CREATION_DATE  = 
ORIGINATOR     = 

OBJECT_NAME    = STARLINK-35710
OBJECT_ID      = 2025-244G
CENTER_NAME    = EARTH
REF_FRAME      = TEME
TIME_SYSTEM    = UTC
MEAN_ELEMENT_THEORY = SGP/SGP4

EPOCH          = 2025-11-24T04:00:01.998720
MEAN_MOTION    = 15.39596026
ECCENTRICITY   = .0002021
INCLINATION    = 53.1605
RA_OF_ASC_NODE = 3.5368
ARG_OF_PERICENTER = 90.3458
MEAN_ANOMALY   = 296.9800

EPHEMERIS_TYPE = 0
CLASSIFICATION_TYPE = U
NORAD_CAT_ID   = 66212
ELEMENT_SET_NO = 999
REV_AT_EPOCH   = 535
BSTAR          = .7041E-3
MEAN_MOTION_DOT = .27845E-3
MEAN_MOTION_DDOT = 0

CCSDS_OMM_VERS = 2.0
CREATION_DATE  = 
ORIGINATOR     = 

OBJECT_NAME    = STARLINK-34204
OBJECT_ID      = 2025-244H
CENTER_NAME    = EARTH
REF_FRAME      = TEME
TIME_SYSTEM    = UTC
MEAN_ELEMENT_THEORY = SGP/SGP4

EPOCH          = 2025-11-24T00:00:02.000160
MEAN_MOTION    = 15.39565570
ECCENTRICITY   = .0001312
INCLINATION    = 53.1603
RA_OF_ASC_NODE = 4.3700
ARG_OF_PERICENTER = 94.3327
MEAN_ANOMALY   = 64.7838

EPHEMERIS_TYPE = 0
CLASSIFICATION_TYPE = U
NORAD_CAT_ID   = 66213
ELEMENT_SET_NO = 999
REV_AT_EPOCH   = 551
BSTAR          = .19102E-2
MEAN_MOTION_DOT = .76642E-3
MEAN_MOTION_DDOT = 0

CCSDS_OMM_VERS = 2.0
CREATION_DATE  = 
ORIGINATOR     = 

OBJECT_NAME    = STARLINK-35714
OBJECT_ID      = 2025-244J
CENTER_NAME    = EARTH
REF_FRAME      = TEME
TIME_SYSTEM    = UTC
MEAN_ELEMENT_THEORY = SGP/SGP4

EPOCH          = 2025-11-24T04:00:01.998720
MEAN_MOTION    = 15.39597753
ECCENTRICITY   = .0001482
INCLINATION    = 53.1600
RA_OF_ASC_NODE = 3.4339
ARG_OF_PERICENTER = 91.6304
MEAN_ANOMALY   = 347.2044

EPHEMERIS_TYPE = 0
CLASSIFICATION_TYPE = U
NORAD_CAT_ID   = 66214
ELEMENT_SET_NO = 999
REV_AT_EPOCH   = 522
BSTAR          = .73742E-3
MEAN_MOTION_DOT = .29188E-3
MEAN_MOTION_DDOT = 0

CCSDS_OMM_VERS = 2.0
CREATION_DATE  = 
ORIGINATOR     = 

OBJECT_NAME    = STARLINK-35712
OBJECT_ID      = 2025-244K
CENTER_NAME    = EARTH
REF_FRAME      = TEME
TIME_SYSTEM    = UTC
MEAN_ELEMENT_THEORY = SGP/SGP4

EPOCH          = 2025-11-24T04:00:01.998720
MEAN_MOTION    = 15.39597088
ECCENTRICITY   = .0001448
INCLINATION    = 53.1595
RA_OF_ASC_NODE = 3.3826
ARG_OF_PERICENTER = 94.5254
MEAN_ANOMALY   = 10.0452

EPHEMERIS_TYPE = 0
CLASSIFICATION_TYPE = U
NORAD_CAT_ID   = 66215
ELEMENT_SET_NO = 999
REV_AT_EPOCH   = 522
BSTAR          = .74623E-3
MEAN_MOTION_DOT = .29542E-3
MEAN_MOTION_DDOT = 0

CCSDS_OMM_VERS = 2.0
CREATION_DATE  = 
ORIGINATOR     = 

OBJECT_NAME    = STARLINK-35709
OBJECT_ID      = 2025-244L
CENTER_NAME    = EARTH
REF_FRAME      = TEME
TIME_SYSTEM    = UTC
MEAN_ELEMENT_THEORY = SGP/SGP4

EPOCH          = 2025-11-24T04:00:01.998720
MEAN_MOTION    = 15.39596322
ECCENTRICITY   = .000126
INCLINATION    = 53.1606
RA_OF_ASC_NODE = 3.5333
ARG_OF_PERICENTER = 98.5878
MEAN_ANOMALY   = 290.5716

EPHEMERIS_TYPE = 0
CLASSIFICATION_TYPE = U
NORAD_CAT_ID   = 66216
ELEMENT_SET_NO = 999
REV_AT_EPOCH   = 522
BSTAR          = .74458E-3
MEAN_MOTION_DOT = .29475E-3
MEAN_MOTION_DDOT = 0

CCSDS_OMM_VERS = 2.0
CREATION_DATE  = 
ORIGINATOR     = 

OBJECT_NAME    = STARLINK-35700
OBJECT_ID      = 2025-244M
CENTER_NAME    = EARTH
REF_FRAME      = TEME
TIME_SYSTEM    = UTC
MEAN_ELEMENT_THEORY = SGP/SGP4

EPOCH          = 2025-11-24T04:00:01.998720
MEAN_MOTION    = 15.39602767
ECCENTRICITY   = .0002123
INCLINATION    = 53.1604
RA_OF_ASC_NODE = 3.4859
ARG_OF_PERICENTER = 93.0870
MEAN_ANOMALY   = 319.9769

EPHEMERIS_TYPE = 0
CLASSIFICATION_TYPE = U
NORAD_CAT_ID   = 66217
ELEMENT_SET_NO = 999
REV_AT_EPOCH   = 522
BSTAR          = .68464E-3
MEAN_MOTION_DOT = .27067E-3
MEAN_MOTION_DDOT = 0

CCSDS_OMM_VERS = 2.0
CREATION_DATE  = 
ORIGINATOR     = 

OBJECT_NAME    = STARLINK-35722
OBJECT_ID      = 2025-244N
CENTER_NAME    = EARTH
REF_FRAME      = TEME
TIME_SYSTEM    = UTC
MEAN_ELEMENT_THEORY = SGP/SGP4

EPOCH          = 2025-11-24T04:00:01.998720
MEAN_MOTION    = 15.39597949
ECCENTRICITY   = .0001822
INCLINATION    = 53.1604
RA_OF_ASC_NODE = 3.4817
ARG_OF_PERICENTER = 95.0499
MEAN_ANOMALY   = 319.8500

EPHEMERIS_TYPE = 0
CLASSIFICATION_TYPE = U
NORAD_CAT_ID   = 66218
ELEMENT_SET_NO = 999
REV_AT_EPOCH   = 522
BSTAR          = .75572E-3
MEAN_MOTION_DOT = .29926E-3
MEAN_MOTION_DDOT = 0

